CTC1_L_00156016-03
1 10062U 25959KM  26075.70031250  .00000000  00000+0  00000-0 0  9996
2 10062  95.0000 180.0000 0000000   0.0000   0.0000 14.06899812    13
CTC1_L_00156016-04
1 10063U 25266G   26075.70031250  .00000000  00000+0  00000-0 0  9998
2 10063  95.0000 180.0000 0000000   0.0000  90.0000 14.06899812    13
CTC1_L_00156017-01
1 10064U 24321RI  26075.70031250  .00000000  00000+0  00000-0 0  9990
2 10064  95.0000 192.0000 0000000   0.0000 192.0000 14.06899812    10
CTC1_L_00156017-02
1 10065U 24628AR  26075.70031250  .00000000  00000+0  00000-0 0  9991
2 10065  95.0000 192.0000 0000000   0.0000 282.0000 14.06899812    11
CTC1_L_00156017-03
1 10066U 22544OI  26075.70031250  .00000000  00000+0  00000-0 0  9997
2 10066  95.0000 192.0000 0000000   0.0000  12.0000 14.06899812    13
CTC1_L_00156017-04
1 10067U 25723HU  26075.70031250  .00000000  00000+0  00000-0 0  9990
2 10067  95.0000 192.0000 0000000   0.0000 102.0000 14.06899812    14
CTC1_L_00156018-01
1 10068U 25755AG  26075.70031250  .00000000  00000+0  00000-0 0  9996
2 10068  95.0000 204.0000 0000000   0.0000 204.0000 14.06899812    12
CTC1_L_00156018-02
1 10069U 22457BB  26075.70031250  .00000000  00000+0  00000-0 0  9993
2 10069  95.0000 204.0000 0000000   0.0000 294.0000 14.06899812    12
CTC1_L_00156018-03
1 10070U 24143UE  26075.70031250  .00000000  00000+0  00000-0 0  9999
2 10070  95.0000 204.0000 0000000   0.0000  24.0000 14.06899812    15
CTC1_L_00156018-04
1 10071U 23627AL  26075.70031250  .00000000  00000+0  00000-0 0  9996
2 10071  95.0000 204.0000 0000000   0.0000 114.0000 14.06899812    16
CTC1_L_00156019-01
1 10072U 24623MP  26075.70031250  .00000000  00000+0  00000-0 0  9994
2 10072  95.0000 216.0000 0000000   0.0000 216.0000 14.06899812    13
CTC1_L_00156019-02
1 10073U 24563LN  26075.70031250  .00000000  00000+0  00000-0 0  9998
2 10073  95.0000 216.0000 0000000   0.0000 306.0000 14.06899812    14
CTC1_L_00156019-03
1 10074U 25817EQ  26075.70031250  .00000000  00000+0  00000-0 0  9992
2 10074  95.0000 216.0000 0000000   0.0000  36.0000 14.06899812    15
CTC1_L_00156019-04
1 10075U 22951WF  26075.70031250  .00000000  00000+0  00000-0 0  9999
2 10075  95.0000 216.0000 0000000   0.0000 126.0000 14.06899812    16
CTC1_L_00156020-01
1 10076U 25663JV  26075.70031250  .00000000  00000+0  00000-0 0  9993
2 10076  95.0000 228.0000 0000000   0.0000 228.0000 14.06899812    13
CTC1_L_00156020-02
1 10077U 25932RX  26075.70031250  .00000000  00000+0  00000-0 0  9993
2 10077  95.0000 228.0000 0000000   0.0000 318.0000 14.06899812    14
CTC1_L_00156020-03
1 10078U 22867JS  26075.70031250  .00000000  00000+0  00000-0 0  9998
2 10078  95.0000 228.0000 0000000   0.0000  48.0000 14.06899812    15
CTC1_L_00156020-04
1 10079U 24546QG  26075.70031250  .00000000  00000+0  00000-0 0  9995
2 10079  95.0000 228.0000 0000000   0.0000 138.0000 14.06899812    16
CTC1_L_00156021-01
1 10080U 23053AF  26075.70031250  .00000000  00000+0  00000-0 0  9999
2 10080  95.0000 240.0000 0000000   0.0000 240.0000 14.06899812    16
CTC1_L_00156021-02
1 10081U 25426RN  26075.70031250  .00000000  00000+0  00000-0 0  9996
2 10081  95.0000 240.0000 0000000   0.0000 330.0000 14.06899812    17
CTC1_L_00156021-03
1 10082U 22523NV  26075.70031250  .00000000  00000+0  00000-0 0  9992
2 10082  95.0000 240.0000 0000000   0.0000  60.0000 14.06899812    18
CTC1_L_00156021-04
1 10083U 23840B   26075.70031250  .00000000  00000+0  00000-0 0  9996
2 10083  95.0000 240.0000 0000000   0.0000 150.0000 14.06899812    19
CTC1_L_00156022-01
1 10084U 25446ZK  26075.70031250  .00000000  00000+0  00000-0 0  9991
2 10084  95.0000 252.0000 0000000   0.0000 252.0000 14.06899812    16
CTC1_L_00156022-02
1 10085U 24786CB  26075.70031250  .00000000  00000+0  00000-0 0  9998
2 10085  95.0000 252.0000 0000000   0.0000 342.0000 14.06899812    17
CTC1_L_00156022-03
1 10086U 22981EL  26075.70031250  .00000000  00000+0  00000-0 0  9994
2 10086  95.0000 252.0000 0000000   0.0000  72.0000 14.06899812    18
CTC1_L_00156022-04
1 10087U 23835SN  26075.70031250  .00000000  00000+0  00000-0 0  9994
2 10087  95.0000 252.0000 0000000   0.0000 162.0000 14.06899812    19
CTC1_L_00156023-01
1 10088U 24836SC  26075.70031250  .00000000  00000+0  00000-0 0  9997
2 10088  95.0000 264.0000 0000000   0.0000 264.0000 14.06899812    16
CTC1_L_00156023-02
1 10089U 23395SZ  26075.70031250  .00000000  00000+0  00000-0 0  9997
2 10089  95.0000 264.0000 0000000   0.0000 354.0000 14.06899812    17
CTC1_L_00156023-03
1 10090U 23761QL  26075.70031250  .00000000  00000+0  00000-0 0  9996
2 10090  95.0000 264.0000 0000000   0.0000  84.0000 14.06899812    19
CTC1_L_00156023-04
1 10091U 25638Z   26075.70031250  .00000000  00000+0  00000-0 0  9992
2 10091  95.0000 264.0000 0000000   0.0000 174.0000 14.06899812    10
CTC1_L_00156024-01
1 10092U 25433WM  26075.70031250  .00000000  00000+0  00000-0 0  9996
2 10092  95.0000 276.0000 0000000   0.0000 276.0000 14.06899812    17
CTC1_L_00156024-02
1 10093U 24068HU  26075.70031250  .00000000  00000+0  00000-0 0  9990
2 10093  95.0000 276.0000 0000000   0.0000   6.0000 14.06899812    19
CTC1_L_00156024-03
1 10094U 22135CV  26075.70031250  .00000000  00000+0  00000-0 0  9994
2 10094  95.0000 276.0000 0000000   0.0000  96.0000 14.06899812    19
CTC1_L_00156024-04
1 10095U 24527XU  26075.70031250  .00000000  00000+0  00000-0 0  9992
2 10095  95.0000 276.0000 0000000   0.0000 186.0000 14.06899812    10
CTC1_L_00156025-01
1 10096U 23693LH  26075.70031250  .00000000  00000+0  00000-0 0  9996
2 10096  95.0000 288.0000 0000000   0.0000 288.0000 14.06899812    17
CTC1_L_00156025-02
1 10097U 25415VM  26075.70031250  .00000000  00000+0  00000-0 0  9991
2 10097  95.0000 288.0000 0000000   0.0000  18.0000 14.06899812    19
CTC1_L_00156025-03
1 10098U 26090RA  26075.70031250  .00000000  00000+0  00000-0 0  9992
2 10098  95.0000 288.0000 0000000   0.0000 108.0000 14.06899812    10
CTC1_L_00156025-04
1 10099U 26599GF  26075.70031250  .00000000  00000+0  00000-0 0  9997
2 10099  95.0000 288.0000 0000000   0.0000 198.0000 14.06899812    10
CTC1_L_00156026-01
1 10100U 25564FZ  26075.70031250  .00000000  00000+0  00000-0 0  9991
2 10100  95.0000 300.0000 0000000   0.0000 300.0000 14.06899812    13
CTC1_L_00156026-02
1 10101U 24850SG  26075.70031250  .00000000  00000+0  00000-0 0  9999
2 10101  95.0000 300.0000 0000000   0.0000  30.0000 14.06899812    14
CTC1_L_00156026-03
1 10102U 24730B   26075.70031250  .00000000  00000+0  00000-0 0  9997
2 10102  95.0000 300.0000 0000000   0.0000 120.0000 14.06899812    15
CTC1_L_00156026-04
1 10103U 24024NM  26075.70031250  .00000000  00000+0  00000-0 0  9994
2 10103  95.0000 300.0000 0000000   0.0000 210.0000 14.06899812    16
CTC1_L_00156027-01
1 10104U 25490OQ  26075.70031250  .00000000  00000+0  00000-0 0  9993
2 10104  95.0000 312.0000 0000000   0.0000 312.0000 14.06899812    13
CTC1_L_00156027-02
1 10105U 24888GE  26075.70031250  .00000000  00000+0  00000-0 0  9994
2 10105  95.0000 312.0000 0000000   0.0000  42.0000 14.06899812    14
CTC1_L_00156027-03
1 10106U 25019VO  26075.70031250  .00000000  00000+0  00000-0 0  9992
2 10106  95.0000 312.0000 0000000   0.0000 132.0000 14.06899812    15
CTC1_L_00156027-04
1 10107U 25528GG  26075.70031250  .00000000  00000+0  00000-0 0  9998
2 10107  95.0000 312.0000 0000000   0.0000 222.0000 14.06899812    16
CTC1_L_00156028-01
1 10108U 22400WV  26075.70031250  .00000000  00000+0  00000-0 0  9995
2 10108  95.0000 324.0000 0000000   0.0000 324.0000 14.06899812    13
CTC1_L_00156028-02
1 10109U 26932PN  26075.70031250  .00000000  00000+0  00000-0 0  9990
2 10109  95.0000 324.0000 0000000   0.0000  54.0000 14.06899812    14
CTC1_L_00156028-03
1 10110U 25084FJ  26075.70031250  .00000000  00000+0  00000-0 0  9999
2 10110  95.0000 324.0000 0000000   0.0000 144.0000 14.06899812    16
CTC1_L_00156028-04
1 10111U 22285UL  26075.70031250  .00000000  00000+0  00000-0 0  9990
2 10111  95.0000 324.0000 0000000   0.0000 234.0000 14.06899812    17
CTC1_L_00156029-01
1 10112U 22655CR  26075.70031250  .00000000  00000+0  00000-0 0  9992
2 10112  95.0000 336.0000 0000000   0.0000 336.0000 14.06899812    14
CTC1_L_00156029-02
1 10113U 26151FO  26075.70031250  .00000000  00000+0  00000-0 0  9998
2 10113  95.0000 336.0000 0000000   0.0000  66.0000 14.06899812    15
CTC1_L_00156029-03
1 10114U 25392UC  26075.70031250  .00000000  00000+0  00000-0 0  9995
2 10114  95.0000 336.0000 0000000   0.0000 156.0000 14.06899812    16
CTC1_L_00156029-04
1 10115U 26591VC  26075.70031250  .00000000  00000+0  00000-0 0  9998
2 10115  95.0000 336.0000 0000000   0.0000 246.0000 14.06899812    17
CTC1_L_00156030-01
1 10116U 26153HZ  26075.70031250  .00000000  00000+0  00000-0 0  9993
2 10116  95.0000 348.0000 0000000   0.0000 348.0000 14.06899812    14
CTC1_L_00156030-02
1 10117U 22552ND  26075.70031250  .00000000  00000+0  00000-0 0  9993
2 10117  95.0000 348.0000 0000000   0.0000  78.0000 14.06899812    15
CTC1_L_00156030-03
1 10118U 22102MA  26075.70031250  .00000000  00000+0  00000-0 0  9995
2 10118  95.0000 348.0000 0000000   0.0000 168.0000 14.06899812    16
CTC1_L_00156030-04
1 10119U 26207ZF  26075.70031250  .00000000  00000+0  00000-0 0  9996
2 10119  95.0000 348.0000 0000000   0.0000 258.0000 14.06899812    17
